{"type": "FeatureCollection", "features": [{"type": "Feature", "properties": {"kato_code": "550000000", "name_ru": "Павлодарская область", "name_en": "Pavlodar Region", "name_kz": "Pavlodar oblysy", "kato2": "55"}, "geometry": {"type": "Polygon", "coordinates": [[[73.439, 53.435], [73.59, 53.282], [73.542, 53.261], [73.43, 53.292], [73.406, 53.167], [73.434, 53.124], [73.653, 53.208], [73.776, 53.166], [73.662, 53.098], [73.505, 52.938], [73.612, 52.984], [73.668, 52.933], [73.592, 52.882], [73.629, 52.814], [73.688, 52.798], [73.767, 52.81], [73.856, 52.901], [73.99, 52.931], [74.035, 52.833], [73.984, 52.83], [73.986, 52.762], [73.918, 52.761], [73.922, 52.653], [73.854, 52.652], [73.734, 52.712], [73.669, 52.692], [73.747, 52.627], [73.922, 52.626], [73.921, 52.544], [74.0, 52.544], [74.0, 51.932], [74.03, 51.932], [74.028, 51.892], [73.969, 51.893], [73.81, 51.804], [73.778, 51.627], [74.007, 51.643], [74.037, 51.599], [74.251, 51.562], [74.26, 51.523], [73.986, 51.501], [73.811, 51.439], [73.814, 51.394], [73.701, 51.339], [73.671, 51.279], [74.031, 51.202], [74.0, 51.169], [74.049, 51.098], [74.001, 51.045], [74.027, 51.002], [73.99, 50.953], [74.095, 50.943], [74.048, 50.907], [74.067, 50.838], [73.994, 50.833], [73.921, 50.78], [73.944, 50.749], [73.881, 50.698], [73.894, 50.664], [74.022, 50.61], [74.287, 50.617], [74.45, 50.663], [74.628, 50.608], [74.601, 50.516], [74.645, 50.466], [74.709, 50.48], [74.758, 50.546], [74.871, 50.454], [74.914, 50.468], [74.966, 50.412], [74.972, 50.33], [75.14, 50.255], [75.116, 50.218], [74.936, 50.184], [74.803, 50.107], [74.845, 50.041], [75.01, 50.023], [75.329, 50.173], [75.642, 50.189], [75.705, 50.234], [75.848, 50.204], [76.107, 50.258], [76.216, 50.213], [76.32, 50.329], [76.526, 50.331], [76.651, 50.273], [76.781, 50.591], [76.845, 50.64], [77.077, 50.667], [77.253, 50.567], [77.451, 50.551], [77.646, 50.465], [77.643, 50.361], [77.6, 50.278], [77.697, 50.222], [77.756, 50.235], [77.803, 50.192], [78.414, 50.038], [78.613, 50.088], [78.82, 50.321], [78.78, 50.451], [78.705, 50.473], [78.696, 50.66], [78.719, 50.702], [78.524, 50.681], [78.458, 50.737], [78.479, 50.8], [78.46, 50.839], [78.269, 50.887], [78.188, 51.016], [78.129, 51.026], [78.129, 51.066], [78.08, 51.08], [78.069, 51.142], [78.286, 51.2], [78.34, 51.245], [78.391, 51.219], [78.514, 51.231], [78.698, 51.312], [78.785, 51.299], [78.79, 51.383], [78.748, 51.381], [78.74, 51.468], [78.671, 51.491], [78.825, 51.494], [78.856, 51.485], [78.842, 51.454], [78.983, 51.449], [79.101, 51.525], [79.061, 51.587], [79.202, 51.619], [79.246, 51.646], [79.251, 51.698], [79.339, 51.709], [79.112, 52.003], [77.906, 53.291], [76.504, 54.032], [76.435, 54.123], [76.44, 54.167], [76.616, 54.162], [76.645, 54.124], [76.757, 54.162], [76.879, 54.302], [76.86, 54.361], [76.781, 54.378], [76.953, 54.416], [76.929, 54.458], [76.73, 54.418], [76.646, 54.337], [76.476, 54.318], [76.257, 54.359], [76.186, 54.302], [76.228, 54.276], [76.201, 54.26], [75.598, 54.099], [75.529, 54.115], [75.376, 54.07], [75.441, 53.972], [75.047, 53.793], [74.974, 53.823], [74.795, 53.825], [74.763, 53.744], [74.674, 53.755], [74.643, 53.672], [74.458, 53.691], [74.421, 53.593], [74.487, 53.569], [74.391, 53.456], [74.291, 53.492], [74.305, 53.518], [74.269, 53.524], [74.287, 53.561], [74.243, 53.588], [74.163, 53.601], [74.147, 53.556], [74.053, 53.566], [74.072, 53.63], [73.901, 53.651], [73.821, 53.578], [73.667, 53.613], [73.645, 53.553], [73.594, 53.559], [73.58, 53.52], [73.439, 53.435]]]}}, {"type": "Feature", "properties": {"kato_code": "310000000", "name_ru": "Жамбылская область", "name_en": "Jambyl Region", "name_kz": "Jambyl oblysy", "kato2": "31"}, "geometry": {"type": "Polygon", "coordinates": [[[69.067, 46.0], [69.267, 45.769], [69.359, 45.497], [69.539, 45.155], [69.593, 44.956], [69.653, 44.888], [69.825, 44.161], [69.707, 44.027], [69.734, 43.987], [69.68, 43.764], [69.557, 43.556], [69.434, 43.431], [69.542, 43.412], [69.529, 43.309], [69.627, 43.303], [69.635, 43.25], [69.731, 43.259], [69.821, 43.227], [69.87, 43.263], [69.917, 43.211], [70.0, 43.205], [70.004, 43.17], [70.073, 43.15], [70.064, 43.117], [70.124, 43.074], [70.15, 43.093], [70.177, 43.054], [70.145, 43.028], [70.198, 43.007], [70.251, 42.878], [70.202, 42.856], [70.194, 42.811], [70.234, 42.794], [70.207, 42.747], [70.516, 42.604], [70.62, 42.532], [70.667, 42.452], [70.771, 42.45], [70.779, 42.393], [70.843, 42.326], [70.955, 42.399], [70.933, 42.418], [70.98, 42.498], [71.081, 42.476], [71.003, 42.588], [71.16, 42.59], [71.178, 42.674], [71.227, 42.693], [71.277, 42.78], [71.534, 42.801], [71.627, 42.765], [71.864, 42.833], [72.12, 42.736], [72.282, 42.759], [72.499, 42.685], [72.607, 42.681], [72.744, 42.639], [72.814, 42.568], [72.911, 42.535], [73.12, 42.552], [73.31, 42.518], [73.329, 42.444], [73.487, 42.418], [73.519, 42.445], [73.433, 42.549], [73.547, 43.017], [73.83, 43.126], [73.912, 43.124], [73.969, 43.223], [74.043, 43.172], [74.211, 43.196], [74.204, 43.267], [74.578, 43.133], [74.749, 42.99], [74.853, 43.0], [75.231, 42.854], [75.717, 42.797], [75.824, 42.939], [75.773, 42.941], [75.774, 42.973], [75.547, 42.982], [75.656, 43.044], [75.349, 43.146], [75.294, 43.213], [75.331, 43.253], [75.281, 43.263], [75.294, 43.376], [75.419, 43.471], [75.389, 43.535], [75.242, 43.537], [75.239, 43.59], [75.181, 43.591], [75.184, 43.543], [74.997, 43.61], [74.997, 43.651], [75.268, 43.825], [75.273, 43.949], [75.316, 44.018], [75.307, 44.148], [74.998, 44.327], [74.751, 44.358], [74.52, 44.486], [74.494, 44.526], [74.523, 44.699], [74.403, 44.801], [74.133, 44.913], [74.088, 45.127], [73.755, 45.104], [73.722, 45.221], [73.753, 45.289], [74.031, 45.288], [73.901, 45.746], [74.061, 46.001], [69.067, 46.0]]]}}, {"type": "Feature", "properties": {"kato_code": "390000000", "name_ru": "Костанайская область", "name_en": "Kostanay Region", "name_kz": "Qostanai oblysy", "kato2": "39"}, "geometry": {"type": "Polygon", "coordinates": [[[66.075, 54.641], [65.964, 54.638], [65.982, 54.717], [65.845, 54.697], [65.8, 54.624], [65.747, 54.607], [65.49, 54.656], [65.457, 54.624], [65.504, 54.571], [65.358, 54.577], [65.215, 54.541], [65.201, 54.452], [65.263, 54.362], [65.222, 54.334], [65.104, 54.334], [64.975, 54.424], [64.739, 54.354], [64.659, 54.361], [64.617, 54.398], [64.419, 54.327], [63.983, 54.3], [64.021, 54.23], [63.975, 54.202], [63.912, 54.198], [63.794, 54.272], [63.398, 54.188], [63.171, 54.194], [63.156, 54.127], [63.08, 54.104], [62.877, 54.119], [62.662, 54.092], [62.574, 54.058], [62.598, 53.989], [62.517, 53.913], [62.446, 53.927], [62.395, 54.003], [62.494, 54.032], [62.419, 54.047], [62.013, 54.04], [62.044, 53.949], [61.932, 53.95], [61.858, 53.962], [61.893, 54.009], [61.85, 54.008], [61.851, 54.031], [61.782, 53.985], [61.726, 54.03], [61.66, 54.03], [61.612, 53.968], [61.572, 53.968], [61.57, 54.008], [61.48, 54.03], [61.48, 54.083], [61.294, 54.074], [61.242, 54.029], [61.28, 53.929], [61.206, 53.918], [61.172, 53.943], [61.181, 53.972], [61.1, 53.975], [61.08, 53.945], [60.997, 53.936], [60.995, 53.907], [61.135, 53.904], [61.18, 53.852], [61.237, 53.842], [61.227, 53.796], [61.115, 53.722], [61.058, 53.721], [61.042, 53.653], [60.896, 53.668], [60.9, 53.628], [61.121, 53.615], [61.216, 53.564], [61.349, 53.559], [61.391, 53.602], [61.553, 53.593], [61.592, 53.526], [61.517, 53.474], [61.428, 53.456], [61.366, 53.467], [61.324, 53.519], [61.257, 53.506], [61.216, 53.431], [61.155, 53.406], [61.177, 53.311], [61.4, 53.274], [61.527, 53.215], [61.63, 53.223], [61.673, 53.266], [61.783, 53.184], [62.119, 53.112], [62.147, 53.068], [62.13, 52.989], [61.961, 52.95], [61.85, 53.004], [61.702, 52.998], [61.632, 52.954], [61.47, 53.036], [61.389, 52.992], [61.306, 52.996], [61.25, 53.036], [61.112, 52.969], [61.008, 52.978], [61.073, 52.923], [60.872, 52.833], [60.834, 52.774], [60.712, 52.764], [60.715, 52.663], [60.761, 52.627], [60.843, 52.641], [60.841, 52.522], [60.981, 52.508], [60.991, 52.424], [61.067, 52.348], [60.944, 52.266], [60.781, 52.229], [60.717, 52.156], [60.51, 52.157], [60.198, 51.991], [60.002, 51.993], [60.01, 51.94], [60.075, 51.888], [60.06, 51.87], [60.157, 51.858], [60.145, 51.907], [60.429, 51.798], [60.519, 51.798], [60.519, 51.773], [60.353, 51.689], [60.416, 51.647], [60.538, 51.618], [60.936, 51.615], [60.911, 51.553], [60.999, 51.468], [61.501, 51.409], [61.549, 51.323], [61.69, 51.256], [61.787, 51.269], [61.852, 51.317], [61.914, 51.263], [61.995, 51.089], [62.073, 51.073], [62.131, 51.139], [62.283, 51.08], [62.276, 51.041], [62.209, 51.013], [62.229, 50.978], [62.43, 50.853], [62.312, 50.841], [62.276, 50.802], [62.222, 50.814], [62.276, 50.722], [62.23, 50.676], [62.267, 50.642], [62.44, 50.689], [62.529, 50.516], [62.507, 50.478], [62.558, 50.416], [62.635, 50.386], [62.668, 50.31], [62.735, 50.265], [62.737, 50.212], [62.821, 50.165], [62.885, 50.092], [62.891, 50.039], [62.953, 49.997], [62.91, 49.916], [62.926, 49.882], [62.791, 49.937], [62.658, 49.908], [62.599, 49.862], [62.555, 49.735], [62.438, 49.684], [62.473, 49.562], [62.367, 49.578], [62.305, 49.497], [62.547, 49.253], [62.376, 49.236], [62.361, 49.201], [62.446, 49.198], [62.549, 49.018], [62.845, 48.849], [63.02, 48.929], [63.13, 48.863], [63.049, 48.758], [63.079, 48.682], [63.417, 48.602], [63.771, 48.454], [64.016, 48.17], [64.283, 48.348], [64.228, 48.462], [64.579, 48.511], [64.491, 48.566], [64.531, 48.6], [64.469, 48.675], [64.698, 48.676], [64.746, 48.938], [65.486, 48.828], [65.737, 48.876], [65.775, 48.982], [66.073, 48.993], [66.412, 49.242], [66.542, 49.27], [66.597, 49.324], [66.651, 49.457], [66.837, 49.579], [67.042, 49.648], [67.374, 49.938], [67.399, 49.916], [67.638, 50.119], [67.576, 50.163], [67.599, 50.223], [67.964, 50.317], [68.09, 50.441], [68.092, 50.465], [67.991, 50.513], [68.009, 50.538], [67.939, 50.553], [67.782, 50.485], [67.564, 50.492], [67.132, 50.384], [67.066, 50.531], [67.111, 50.622], [66.991, 50.658], [66.725, 50.611], [66.433, 50.711], [66.316, 50.685], [66.241, 50.827], [66.11, 50.798], [66.088, 50.872], [65.95, 50.959], [65.862, 50.964], [65.789, 50.854], [65.605, 50.831], [65.579, 50.896], [65.633, 51.082], [65.426, 51.203], [65.482, 51.243], [65.388, 51.327], [65.547, 51.404], [65.462, 51.44], [65.537, 51.514], [65.577, 51.628], [65.521, 51.684], [65.383, 51.685], [65.352, 51.794], [65.518, 51.796], [65.76, 51.872], [65.868, 52.083], [65.869, 52.141], [65.999, 52.205], [66.019, 52.761], [66.129, 52.764], [66.118, 52.894], [66.308, 52.886], [66.321, 52.97], [66.071, 52.982], [66.05, 53.061], [66.2, 53.111], [66.402, 53.09], [66.4, 53.155], [66.257, 53.194], [66.249, 53.503], [66.111, 53.503], [66.105, 53.606], [66.174, 53.671], [66.179, 53.806], [66.047, 53.803], [66.025, 53.933], [66.002, 53.928], [65.963, 53.999], [66.15, 54.075], [66.318, 54.102], [66.267, 54.183], [66.191, 54.183], [66.032, 54.252], [66.177, 54.294], [66.085, 54.419], [66.107, 54.444], [66.074, 54.47], [66.11, 54.489], [66.075, 54.641]]]}}, {"type": "Feature", "properties": {"kato_code": "470000000", "name_ru": "Мангистауская область", "name_en": "Mangystau Region", "name_kz": "Mańǵystau oblysy", "kato2": "47"}, "geometry": {"type": "MultiPolygon", "coordinates": [[[[50.012, 45.0], [50.01, 44.942], [50.055, 44.87], [50.197, 44.816], [50.214, 44.85], [50.097, 44.86], [50.052, 44.913], [50.031, 45.009], [50.102, 45.037], [50.033, 45.037], [50.012, 45.0]]], [[[50.373, 44.831], [50.379, 44.762], [50.373, 44.831]]], [[[50.625, 44.818], [50.578, 44.848], [50.569, 44.774], [50.647, 44.814], [50.625, 44.818]]], [[[50.887, 44.823], [50.934, 44.822], [50.894, 44.848], [50.887, 44.823]]], [[[53.192, 46.012], [53.161, 45.928], [53.257, 45.889], [53.144, 45.93], [53.048, 45.892], [53.103, 45.852], [53.099, 45.761], [53.455, 45.694], [53.45, 45.667], [53.508, 45.654], [53.511, 45.603], [53.622, 45.5], [53.763, 45.512], [53.739, 45.578], [53.896, 45.675], [53.969, 45.77], [54.212, 45.791], [54.399, 45.648], [54.372, 45.581], [54.54, 45.521], [54.595, 45.426], [54.77, 45.356], [54.822, 45.277], [54.944, 45.234], [54.538, 44.998], [54.275, 45.002], [54.275, 45.06], [54.185, 45.055], [54.122, 45.038], [54.081, 44.979], [53.956, 44.94], [53.721, 44.931], [53.554, 44.795], [53.535, 44.679], [53.435, 44.585], [53.418, 44.498], [53.287, 44.37], [53.121, 44.427], [53.48, 44.935], [53.575, 45.026], [53.942, 45.149], [54.033, 45.258], [53.851, 45.178], [53.832, 45.217], [53.738, 45.256], [53.455, 45.292], [53.235, 45.179], [52.93, 45.187], [52.771, 45.216], [52.687, 45.253], [52.704, 45.278], [52.667, 45.294], [52.291, 45.312], [52.018, 45.41], [51.76, 45.409], [51.388, 45.306], [51.303, 45.238], [51.247, 45.169], [51.278, 45.014], [51.193, 44.886], [51.3, 44.597], [51.452, 44.596], [51.563, 44.554], [51.599, 44.507], [51.45, 44.532], [51.419, 44.503], [51.348, 44.517], [51.365, 44.544], [51.305, 44.543], [51.199, 44.475], [51.099, 44.475], [51.005, 44.52], [51.007, 44.558], [50.824, 44.633], [50.742, 44.603], [50.314, 44.646], [50.268, 44.544], [50.224, 44.587], [50.249, 44.386], [50.389, 44.304], [50.706, 44.263], [50.838, 44.197], [50.873, 44.023], [50.994, 43.937], [51.024, 43.81], [51.137, 43.654], [51.243, 43.579], [51.281, 43.601], [51.243, 43.578], [51.284, 43.535], [51.317, 43.392], [51.273, 43.149], [51.657, 43.182], [51.657, 43.105], [51.765, 43.033], [51.905, 42.833], [52.185, 42.876], [52.292, 42.782], [52.341, 42.826], [52.472, 42.836], [52.613, 42.803], [52.633, 42.746], [52.737, 42.733], [52.752, 42.625], [52.703, 42.572], [52.67, 42.641], [52.58, 42.71], [52.581, 42.743], [52.551, 42.733], [52.659, 42.628], [52.683, 42.55], [52.576, 42.31], [52.436, 42.145], [52.439, 42.022], [52.495, 41.94], [52.446, 41.762], [52.985, 42.121], [53.571, 42.289], [54.218, 42.379], [54.779, 42.053], [54.929, 41.928], [54.95, 41.833], [55.12, 41.605], [55.431, 41.279], [55.5, 41.252], [55.567, 41.294], [55.603, 41.246], [55.636, 41.283], [55.743, 41.302], [55.812, 41.278], [55.877, 41.332], [56.002, 41.324], [55.999, 45.0], [56.744, 45.177], [56.606, 45.926], [56.517, 46.097], [56.467, 46.132], [56.122, 46.154], [56.045, 46.212], [55.981, 46.211], [55.957, 46.26], [55.837, 46.251], [55.82, 46.276], [55.86, 46.305], [55.818, 46.401], [55.603, 46.421], [55.488, 46.52], [55.27, 46.367], [54.833, 46.364], [54.308, 46.257], [53.972, 46.246], [53.969, 46.192], [53.895, 46.127], [53.684, 46.016], [53.192, 46.012]]], [[[51.122, 44.848], [51.161, 44.834], [51.122, 44.848]]], [[[50.964, 44.836], [50.99, 44.847], [50.964, 44.836]]], [[[51.056, 44.862], [51.086, 44.884], [51.036, 44.882], [51.056, 44.862]]], [[[53.148, 45.52], [53.225, 45.494], [53.243, 45.562], [53.136, 45.556], [53.148, 45.52]]], [[[51.122, 45.0], [51.049, 44.938], [51.098, 44.906], [51.101, 44.856], [51.161, 44.911], [51.174, 45.013], [51.209, 44.991], [51.242, 45.012], [51.215, 45.042], [51.122, 45.0]]], [[[50.719, 44.895], [50.731, 44.922], [50.684, 44.925], [50.719, 44.895]]], [[[50.459, 44.91], [50.453, 44.931], [50.459, 44.91]]], [[[50.247, 45.0], [50.279, 44.87], [50.268, 44.897], [50.331, 44.943], [50.358, 45.044], [50.26, 45.045], [50.247, 45.0]]]]}}, {"type": "Feature", "properties": {"kato_code": "350000000", "name_ru": "Карагандинская область", "name_en": "Karaganda Region", "name_kz": "Qaraǵandy oblysy", "kato2": "35"}, "geometry": {"type": "Polygon", "coordinates": [[[73.671, 51.279], [73.475, 51.31], [73.429, 51.256], [73.394, 51.303], [73.311, 51.274], [73.223, 51.305], [73.156, 51.277], [73.197, 51.216], [73.248, 51.232], [73.32, 51.121], [73.438, 51.179], [73.578, 51.121], [73.398, 51.025], [73.17, 50.994], [73.169, 50.922], [72.98, 50.862], [72.792, 50.887], [72.662, 50.75], [72.525, 50.734], [72.519, 50.712], [72.482, 50.74], [72.399, 50.678], [72.479, 50.608], [72.446, 50.565], [72.267, 50.594], [72.17, 50.539], [72.203, 50.455], [72.117, 50.445], [72.123, 50.41], [72.012, 50.467], [71.809, 50.465], [71.8, 50.424], [71.71, 50.429], [71.816, 50.589], [71.759, 50.627], [71.837, 50.683], [71.736, 50.754], [71.659, 50.755], [71.651, 50.789], [71.527, 50.794], [71.335, 50.722], [71.331, 50.652], [71.229, 50.652], [71.212, 50.606], [71.127, 50.609], [71.058, 50.557], [71.064, 50.508], [70.769, 50.441], [70.73, 50.231], [70.627, 50.288], [70.475, 50.235], [70.548, 50.149], [70.528, 50.133], [70.178, 50.041], [70.111, 50.067], [70.173, 50.199], [70.084, 50.202], [70.07, 50.256], [69.601, 50.198], [69.601, 50.282], [69.519, 50.295], [69.447, 50.377], [69.421, 50.334], [69.372, 50.388], [69.266, 50.358], [69.245, 50.3], [69.294, 50.303], [69.304, 50.246], [69.184, 50.26], [69.153, 50.178], [68.965, 50.176], [68.674, 50.244], [68.73, 50.302], [68.749, 50.512], [68.792, 50.56], [68.801, 50.8], [68.512, 50.804], [68.478, 50.763], [68.331, 50.723], [68.256, 50.657], [68.145, 50.619], [68.046, 50.661], [67.891, 50.656], [67.943, 50.599], [67.939, 50.553], [68.009, 50.538], [67.991, 50.513], [68.092, 50.465], [67.964, 50.317], [67.599, 50.223], [67.576, 50.163], [67.638, 50.119], [67.399, 49.916], [67.374, 49.938], [67.042, 49.648], [66.837, 49.579], [66.651, 49.457], [66.597, 49.324], [66.542, 49.27], [66.412, 49.242], [66.073, 48.993], [65.775, 48.982], [65.737, 48.876], [65.486, 48.828], [64.746, 48.938], [64.698, 48.676], [64.469, 48.675], [64.531, 48.6], [64.491, 48.566], [64.579, 48.511], [64.228, 48.462], [64.283, 48.348], [64.016, 48.17], [64.12, 48.002], [64.277, 47.9], [64.015, 47.703], [63.845, 47.638], [63.653, 47.516], [63.225, 47.361], [62.95, 47.191], [63.407, 47.114], [63.371, 47.064], [63.208, 47.031], [63.303, 46.971], [63.509, 46.929], [63.739, 46.83], [63.849, 46.836], [64.447, 46.689], [64.942, 46.501], [65.141, 46.477], [65.373, 46.312], [65.586, 46.213], [65.893, 46.178], [66.902, 46.172], [67.138, 46.143], [67.175, 46.001], [74.061, 46.001], [74.166, 46.138], [74.744, 46.526], [75.019, 46.557], [75.327, 46.682], [76.049, 46.738], [76.225, 46.639], [76.367, 46.691], [76.377, 46.622], [76.433, 46.643], [76.538, 46.593], [76.525, 46.643], [76.605, 46.666], [76.932, 46.538], [76.833, 46.678], [76.942, 46.617], [77.004, 46.647], [77.073, 46.623], [77.104, 46.543], [77.149, 46.531], [77.263, 46.543], [77.338, 46.613], [77.556, 46.621], [77.466, 47.161], [77.23, 47.175], [77.172, 47.083], [77.138, 47.081], [76.783, 47.247], [76.849, 47.291], [76.872, 47.443], [77.056, 47.418], [77.01, 47.614], [76.971, 47.645], [77.04, 47.858], [77.12, 47.854], [77.142, 47.943], [77.194, 47.959], [77.168, 48.02], [77.338, 48.073], [77.163, 48.105], [77.047, 48.202], [77.06, 48.237], [77.147, 48.244], [77.155, 48.27], [76.982, 48.286], [76.827, 48.405], [76.89, 48.412], [76.904, 48.483], [76.96, 48.502], [77.157, 48.491], [77.317, 48.63], [77.332, 48.742], [77.289, 48.855], [76.884, 48.814], [76.833, 48.848], [76.835, 49.013], [77.034, 49.044], [76.905, 49.125], [76.903, 49.189], [76.668, 49.289], [76.67, 49.322], [76.59, 49.383], [76.605, 49.44], [76.842, 49.514], [77.159, 49.498], [77.105, 49.616], [77.177, 49.706], [77.183, 49.757], [77.145, 49.772], [77.166, 49.929], [77.446, 50.021], [77.678, 50.161], [77.697, 50.222], [77.6, 50.278], [77.643, 50.361], [77.646, 50.465], [77.451, 50.551], [77.253, 50.567], [77.077, 50.667], [76.845, 50.64], [76.781, 50.591], [76.651, 50.273], [76.526, 50.331], [76.32, 50.329], [76.216, 50.213], [76.107, 50.258], [75.848, 50.204], [75.705, 50.234], [75.642, 50.189], [75.329, 50.173], [74.945, 50.013], [74.845, 50.041], [74.803, 50.107], [74.936, 50.184], [75.116, 50.218], [75.14, 50.255], [74.972, 50.33], [74.939, 50.446], [74.871, 50.454], [74.758, 50.546], [74.709, 50.48], [74.645, 50.466], [74.601, 50.516], [74.628, 50.608], [74.581, 50.629], [74.4, 50.662], [74.287, 50.617], [73.994, 50.611], [73.894, 50.664], [73.881, 50.698], [73.944, 50.749], [73.921, 50.78], [73.994, 50.833], [74.067, 50.838], [74.048, 50.907], [74.095, 50.943], [73.99, 50.953], [74.027, 51.002], [74.001, 51.045], [74.049, 51.098], [74.0, 51.169], [74.031, 51.202], [73.671, 51.279]]]}}, {"type": "Feature", "properties": {"kato_code": "430000000", "name_ru": "Кызылординская область", "name_en": "Kyzylorda Region", "name_kz": "Qyzylorda oblysy", "kato2": "43"}, "geometry": {"type": "Polygon", "coordinates": [[[62.95, 47.191], [62.89, 47.177], [62.86, 47.215], [62.581, 47.242], [62.606, 47.328], [62.333, 47.531], [62.212, 47.546], [62.076, 47.723], [61.925, 47.828], [61.352, 47.815], [60.923, 47.11], [60.495, 47.122], [60.474, 46.911], [60.13, 46.895], [59.561, 46.5], [59.112, 46.053], [59.031, 46.007], [59.05, 45.901], [59.08, 45.947], [59.181, 45.929], [59.244, 45.997], [59.313, 45.992], [59.241, 45.881], [59.082, 45.881], [59.05, 45.805], [59.097, 45.323], [59.562, 45.132], [59.585, 45.287], [59.628, 45.328], [59.616, 45.386], [59.684, 45.44], [59.55, 45.529], [59.443, 45.549], [59.4, 45.635], [59.465, 45.645], [59.549, 45.536], [59.628, 45.538], [59.797, 45.452], [59.892, 45.328], [59.866, 45.041], [59.991, 45.003], [61.107, 44.36], [61.138, 44.226], [62.004, 43.505], [63.349, 43.651], [64.535, 43.571], [64.932, 43.735], [65.002, 43.715], [65.185, 43.495], [65.559, 43.289], [65.844, 42.858], [66.097, 42.938], [66.071, 42.338], [66.148, 42.323], [67.224, 42.951], [67.874, 43.212], [67.787, 43.225], [67.831, 43.253], [67.768, 43.275], [67.814, 43.291], [67.794, 43.329], [67.708, 43.367], [67.678, 43.31], [67.65, 43.376], [67.725, 43.407], [67.734, 43.48], [67.814, 43.563], [67.838, 43.639], [67.824, 43.744], [67.919, 43.702], [67.972, 43.737], [67.979, 43.803], [67.922, 43.886], [68.026, 43.962], [68.06, 44.026], [67.807, 44.166], [67.733, 44.272], [67.631, 44.311], [67.583, 44.295], [67.462, 44.368], [67.509, 44.433], [67.526, 44.649], [67.516, 45.148], [67.168, 45.302], [67.168, 45.351], [67.246, 45.406], [67.245, 45.564], [67.291, 45.614], [67.293, 45.687], [67.365, 45.758], [67.304, 45.849], [67.163, 45.956], [67.183, 46.045], [67.144, 46.108], [67.158, 46.136], [66.902, 46.172], [66.39, 46.163], [65.586, 46.213], [65.373, 46.312], [65.141, 46.477], [64.942, 46.501], [64.447, 46.689], [63.849, 46.836], [63.739, 46.83], [63.509, 46.929], [63.303, 46.971], [63.208, 47.031], [63.371, 47.064], [63.407, 47.114], [62.95, 47.191]]]}}, {"type": "Feature", "properties": {"kato_code": "630000000", "name_ru": "Восточно-Казахстанская область", "name_en": "East Kazakhstan Region", "name_kz": "Şyǵys Qazaqstan oblysy", "kato2": "63"}, "geometry": {"type": "Polygon", "coordinates": [[[77.697, 50.222], [77.678, 50.161], [77.446, 50.021], [77.166, 49.929], [77.145, 49.772], [77.183, 49.757], [77.177, 49.706], [77.105, 49.616], [77.159, 49.498], [76.842, 49.514], [76.605, 49.44], [76.59, 49.383], [76.67, 49.322], [76.668, 49.289], [76.903, 49.189], [76.905, 49.125], [77.034, 49.044], [76.835, 49.013], [76.833, 48.848], [76.884, 48.814], [77.289, 48.855], [77.332, 48.742], [77.317, 48.63], [77.157, 48.491], [76.96, 48.502], [76.904, 48.483], [76.89, 48.412], [76.827, 48.405], [76.982, 48.286], [77.155, 48.27], [77.147, 48.244], [77.06, 48.237], [77.047, 48.202], [77.163, 48.105], [77.338, 48.073], [77.168, 48.02], [77.194, 47.959], [77.142, 47.943], [77.12, 47.854], [77.04, 47.858], [76.971, 47.645], [77.01, 47.614], [77.056, 47.418], [76.872, 47.443], [76.849, 47.291], [76.783, 47.247], [76.883, 47.181], [77.172, 47.083], [77.23, 47.175], [77.388, 47.15], [77.609, 47.209], [77.867, 47.17], [78.014, 47.283], [78.142, 47.191], [78.303, 47.331], [78.642, 47.141], [78.768, 47.133], [78.817, 47.047], [79.263, 47.082], [79.577, 46.78], [80.008, 46.915], [80.191, 46.866], [80.198, 46.809], [80.237, 46.784], [80.863, 46.563], [81.142, 46.56], [81.255, 46.49], [81.309, 46.513], [81.34, 46.453], [81.44, 46.526], [81.378, 46.445], [81.4, 46.434], [81.473, 46.495], [81.56, 46.487], [81.603, 46.519], [81.513, 46.417], [81.537, 46.366], [81.885, 46.104], [81.978, 45.881], [82.124, 45.761], [82.121, 45.648], [82.268, 45.536], [82.258, 45.617], [82.345, 45.796], [82.336, 45.939], [82.456, 45.977], [82.512, 46.155], [82.737, 46.512], [82.788, 46.692], [82.865, 46.804], [82.938, 47.016], [82.993, 47.064], [83.031, 47.223], [83.151, 47.235], [83.241, 47.179], [83.365, 47.178], [83.413, 47.116], [83.471, 47.128], [83.565, 47.056], [83.905, 46.975], [83.987, 46.996], [84.125, 46.967], [84.201, 47.002], [84.432, 47.009], [84.514, 46.98], [84.736, 47.014], [84.944, 46.863], [84.98, 46.874], [84.989, 46.919], [85.066, 46.926], [85.079, 46.958], [85.176, 46.992], [85.217, 47.052], [85.559, 47.05], [85.579, 47.141], [85.686, 47.229], [85.699, 47.289], [85.673, 47.321], [85.703, 47.38], [85.608, 47.509], [85.636, 47.586], [85.526, 48.025], [85.554, 48.14], [85.664, 48.246], [85.714, 48.364], [85.838, 48.427], [86.214, 48.432], [86.302, 48.489], [86.372, 48.501], [86.415, 48.475], [86.587, 48.541], [86.635, 48.627], [86.773, 48.72], [86.753, 48.788], [86.819, 48.833], [86.735, 48.923], [86.75, 49.015], [86.835, 49.053], [86.844, 49.101], [86.897, 49.135], [87.142, 49.152], [87.286, 49.116], [87.316, 49.231], [87.031, 49.253], [86.927, 49.349], [86.947, 49.41], [86.833, 49.452], [86.855, 49.499], [86.827, 49.545], [86.618, 49.57], [86.615, 49.629], [86.7, 49.685], [86.779, 49.696], [86.753, 49.742], [86.784, 49.793], [86.688, 49.811], [86.59, 49.807], [86.602, 49.744], [86.42, 49.608], [86.272, 49.583], [86.202, 49.466], [86.113, 49.524], [85.969, 49.487], [85.929, 49.536], [85.944, 49.561], [85.826, 49.544], [85.757, 49.577], [85.678, 49.55], [85.59, 49.614], [85.49, 49.598], [85.388, 49.635], [85.257, 49.589], [85.265, 49.62], [85.21, 49.627], [85.203, 49.745], [85.149, 49.768], [85.06, 49.885], [84.986, 49.907], [84.978, 49.976], [85.049, 50.01], [85.035, 50.053], [84.946, 50.097], [84.851, 50.094], [84.814, 50.121], [84.825, 50.143], [84.758, 50.137], [84.628, 50.211], [84.567, 50.197], [84.457, 50.247], [84.362, 50.206], [84.251, 50.292], [84.27, 50.354], [84.204, 50.468], [84.249, 50.516], [83.966, 50.728], [83.973, 50.795], [83.834, 50.88], [83.704, 50.896], [83.649, 50.955], [83.507, 50.95], [83.432, 51.009], [83.121, 51.011], [83.112, 50.966], [83.006, 50.925], [82.98, 50.884], [82.733, 50.927], [82.739, 50.85], [82.567, 50.747], [82.357, 50.785], [82.173, 50.73], [81.885, 50.804], [81.797, 50.772], [81.776, 50.821], [81.728, 50.76], [81.449, 50.756], [81.486, 50.824], [81.472, 50.863], [81.421, 50.872], [81.443, 50.911], [81.413, 50.976], [81.06, 50.948], [81.173, 51.142], [81.146, 51.212], [81.047, 51.181], [80.92, 51.219], [80.941, 51.259], [80.678, 51.317], [80.635, 51.263], [80.635, 51.207], [80.447, 51.208], [80.434, 51.135], [80.482, 51.109], [80.482, 50.969], [80.193, 50.9], [80.185, 50.827], [80.083, 50.828], [80.068, 50.853], [80.076, 50.738], [79.339, 51.709], [79.251, 51.698], [79.246, 51.646], [79.202, 51.619], [79.061, 51.587], [79.101, 51.525], [78.983, 51.449], [78.842, 51.454], [78.856, 51.485], [78.825, 51.494], [78.671, 51.491], [78.74, 51.468], [78.748, 51.381], [78.79, 51.383], [78.785, 51.299], [78.698, 51.312], [78.514, 51.231], [78.391, 51.219], [78.34, 51.245], [78.286, 51.2], [78.069, 51.142], [78.08, 51.08], [78.129, 51.066], [78.129, 51.026], [78.188, 51.016], [78.269, 50.887], [78.46, 50.839], [78.479, 50.8], [78.458, 50.737], [78.524, 50.681], [78.719, 50.702], [78.696, 50.66], [78.705, 50.473], [78.78, 50.451], [78.82, 50.321], [78.613, 50.088], [78.414, 50.038], [77.803, 50.192], [77.756, 50.235], [77.697, 50.222]]]}}, {"type": "Feature", "properties": {"kato_code": "150000000", "name_ru": "Актюбинская область", "name_en": "Aktobe Region", "name_kz": "Aqtobe oblysy", "kato2": "15"}, "geometry": {"type": "MultiPolygon", "coordinates": [[[[59.05, 45.805], [58.931, 45.786], [58.91, 45.624], [58.747, 45.506], [59.097, 45.323], [59.05, 45.805]]], [[[61.69, 51.256], [61.568, 51.238], [61.449, 50.806], [60.809, 50.656], [60.325, 50.67], [60.183, 50.778], [60.217, 50.812], [60.188, 50.839], [60.015, 50.822], [59.973, 50.769], [59.998, 50.675], [59.906, 50.634], [59.814, 50.536], [59.614, 50.531], [59.51, 50.495], [59.517, 50.528], [59.457, 50.544], [59.463, 50.584], [59.569, 50.581], [59.478, 50.642], [59.278, 50.633], [59.193, 50.673], [58.875, 50.7], [58.774, 50.816], [58.657, 50.809], [58.697, 50.847], [58.689, 50.886], [58.592, 50.869], [58.579, 50.94], [58.637, 50.985], [58.615, 51.047], [58.522, 51.084], [58.384, 51.075], [58.325, 51.164], [58.203, 51.128], [58.216, 51.097], [58.169, 51.062], [58.094, 51.074], [58.088, 51.121], [57.947, 51.086], [57.919, 51.118], [57.869, 51.099], [57.771, 51.138], [57.761, 50.92], [57.559, 50.936], [57.507, 50.876], [57.326, 50.941], [57.289, 51.038], [57.219, 51.039], [57.185, 51.115], [56.984, 51.063], [56.943, 51.088], [56.888, 51.06], [56.785, 51.094], [56.704, 51.078], [56.752, 50.981], [56.721, 50.974], [56.618, 50.986], [56.514, 51.086], [56.449, 51.057], [56.46, 50.965], [56.377, 50.965], [56.393, 50.946], [56.362, 50.901], [56.181, 50.938], [56.133, 50.83], [56.136, 50.753], [56.054, 50.694], [55.903, 50.62], [55.83, 50.622], [55.708, 50.549], [55.535, 50.614], [55.501, 50.67], [55.405, 50.681], [55.385, 50.655], [55.147, 50.797], [55.056, 50.819], [55.13, 50.88], [55.087, 50.921], [54.924, 50.914], [54.894, 50.921], [54.897, 50.958], [54.785, 50.985], [54.738, 51.034], [54.591, 51.03], [54.548, 51.001], [54.594, 50.942], [54.526, 50.93], [54.698, 50.893], [54.657, 50.823], [54.731, 50.619], [54.614, 50.539], [54.573, 50.553], [54.465, 50.403], [54.365, 50.34], [54.44, 50.273], [54.425, 50.118], [54.543, 50.063], [54.556, 50.013], [54.419, 49.815], [54.477, 49.768], [54.366, 49.768], [54.275, 49.676], [54.299, 49.648], [54.201, 49.61], [53.991, 49.619], [53.973, 49.57], [53.875, 49.57], [53.798, 49.525], [53.757, 49.457], [53.695, 49.477], [53.73, 49.425], [53.63, 49.24], [53.666, 49.197], [53.832, 49.144], [53.82, 49.123], [53.879, 49.098], [53.913, 49.164], [53.992, 49.172], [54.012, 48.882], [54.044, 48.807], [54.027, 48.763], [54.46, 48.642], [54.542, 48.64], [54.579, 48.779], [54.635, 48.771], [54.657, 48.8], [54.738, 48.775], [54.753, 48.742], [54.912, 48.709], [54.932, 48.56], [54.888, 48.475], [54.879, 48.365], [54.969, 48.27], [54.939, 48.097], [55.099, 47.956], [55.121, 47.779], [55.002, 47.202], [55.233, 46.874], [55.45, 46.726], [55.738, 46.629], [56.288, 46.513], [56.316, 46.376], [56.441, 46.24], [56.467, 46.132], [56.517, 46.097], [56.606, 45.926], [56.744, 45.177], [58.632, 45.588], [58.649, 45.718], [58.713, 45.841], [58.766, 45.864], [58.825, 45.842], [58.803, 45.889], [58.861, 45.925], [59.04, 45.91], [59.031, 46.007], [59.769, 46.663], [60.13, 46.895], [60.474, 46.911], [60.495, 47.122], [60.923, 47.11], [61.314, 47.79], [61.36, 47.819], [61.925, 47.828], [62.076, 47.723], [62.212, 47.546], [62.333, 47.531], [62.606, 47.328], [62.581, 47.242], [62.86, 47.215], [62.89, 47.177], [63.225, 47.361], [63.653, 47.516], [63.845, 47.638], [64.015, 47.703], [64.277, 47.9], [64.12, 48.002], [64.016, 48.17], [63.771, 48.454], [63.417, 48.602], [63.079, 48.682], [63.049, 48.758], [63.13, 48.863], [63.02, 48.929], [62.845, 48.849], [62.549, 49.018], [62.446, 49.198], [62.361, 49.201], [62.376, 49.236], [62.547, 49.253], [62.305, 49.497], [62.367, 49.578], [62.473, 49.562], [62.438, 49.684], [62.555, 49.735], [62.599, 49.862], [62.658, 49.908], [62.791, 49.937], [62.926, 49.882], [62.91, 49.916], [62.953, 49.997], [62.891, 50.039], [62.885, 50.092], [62.821, 50.165], [62.737, 50.212], [62.735, 50.265], [62.668, 50.31], [62.635, 50.386], [62.558, 50.416], [62.507, 50.478], [62.529, 50.516], [62.44, 50.689], [62.267, 50.642], [62.23, 50.676], [62.276, 50.722], [62.222, 50.814], [62.276, 50.802], [62.312, 50.841], [62.43, 50.853], [62.229, 50.978], [62.209, 51.013], [62.276, 51.041], [62.283, 51.08], [62.131, 51.139], [62.073, 51.073], [61.995, 51.089], [61.914, 51.263], [61.852, 51.317], [61.787, 51.269], [61.69, 51.256]]]]}}, {"type": "Feature", "properties": {"kato_code": "230000000", "name_ru": "Атырауская область", "name_en": "Atyrau Region", "name_kz": "Atyrau oblysy", "kato2": "23"}, "geometry": {"type": "Polygon", "coordinates": [[[56.467, 46.132], [56.441, 46.24], [56.316, 46.376], [56.288, 46.513], [55.738, 46.629], [55.45, 46.726], [55.233, 46.874], [55.002, 47.202], [55.121, 47.779], [55.099, 47.956], [54.939, 48.097], [54.969, 48.27], [54.879, 48.365], [54.888, 48.475], [54.932, 48.56], [54.912, 48.709], [54.753, 48.742], [54.738, 48.775], [54.657, 48.8], [54.635, 48.771], [54.579, 48.779], [54.542, 48.64], [54.46, 48.642], [54.027, 48.763], [54.044, 48.807], [54.012, 48.882], [53.992, 49.172], [53.913, 49.164], [53.879, 49.098], [53.82, 49.123], [53.832, 49.144], [53.666, 49.197], [53.63, 49.24], [53.386, 49.1], [53.425, 49.062], [53.367, 49.038], [53.263, 49.018], [52.825, 49.048], [52.782, 48.981], [52.706, 48.996], [52.716, 48.762], [52.613, 48.766], [52.537, 48.592], [52.536, 48.405], [52.428, 48.403], [52.208, 48.486], [52.07, 48.466], [51.939, 48.525], [51.813, 48.514], [51.816, 48.572], [51.85, 48.587], [51.824, 48.624], [51.4, 48.672], [51.073, 48.627], [51.017, 48.511], [50.727, 48.426], [50.177, 48.18], [49.974, 48.04], [49.806, 48.043], [49.751, 48.013], [49.439, 48.024], [49.447, 47.92], [48.679, 48.103], [47.111, 48.234], [47.126, 48.158], [47.092, 48.103], [47.212, 48.082], [47.05, 47.998], [47.181, 47.854], [47.121, 47.831], [47.194, 47.761], [47.385, 47.682], [47.415, 47.838], [47.653, 47.758], [48.031, 47.763], [48.213, 47.691], [48.453, 47.411], [48.521, 47.412], [48.711, 47.095], [48.916, 46.88], [48.997, 46.743], [48.922, 46.694], [48.752, 46.684], [48.655, 46.726], [48.535, 46.706], [48.552, 46.688], [48.478, 46.671], [48.623, 46.603], [48.546, 46.559], [48.786, 46.542], [48.827, 46.48], [49.053, 46.393], [49.18, 46.377], [49.264, 46.293], [49.338, 46.287], [49.535, 46.188], [49.65, 46.231], [49.84, 46.193], [49.87, 46.351], [49.926, 46.442], [49.938, 46.576], [50.039, 46.581], [50.096, 46.679], [50.212, 46.764], [50.242, 46.692], [50.327, 46.814], [50.413, 46.835], [50.419, 46.912], [50.474, 46.91], [50.488, 46.965], [50.516, 46.939], [50.51, 46.871], [50.57, 46.89], [50.622, 46.962], [50.641, 46.947], [50.696, 46.99], [50.717, 46.963], [50.757, 47.019], [50.787, 46.98], [50.798, 47.028], [50.891, 47.068], [51.105, 47.08], [51.236, 47.133], [51.571, 47.066], [51.575, 47.139], [51.684, 47.104], [51.771, 47.115], [51.705, 47.023], [51.738, 46.98], [51.702, 46.917], [51.734, 46.943], [51.849, 46.93], [51.928, 46.976], [51.983, 46.964], [51.987, 47.004], [52.04, 47.013], [52.227, 46.967], [52.315, 46.986], [52.341, 47.011], [52.32, 47.068], [52.525, 46.993], [52.731, 46.971], [52.809, 46.967], [52.828, 47.007], [52.882, 47.009], [52.994, 46.919], [53.102, 46.891], [53.135, 46.803], [53.16, 46.804], [53.123, 46.74], [53.171, 46.742], [53.168, 46.706], [53.237, 46.666], [53.218, 46.638], [53.25, 46.613], [53.213, 46.601], [53.211, 46.55], [53.38, 46.49], [53.413, 46.417], [53.398, 46.3], [53.27, 46.148], [53.25, 46.044], [53.192, 46.012], [53.684, 46.016], [53.895, 46.127], [53.969, 46.192], [53.972, 46.246], [54.308, 46.257], [54.833, 46.364], [55.27, 46.367], [55.488, 46.52], [55.603, 46.421], [55.818, 46.401], [55.86, 46.305], [55.82, 46.276], [55.837, 46.251], [55.957, 46.26], [55.981, 46.211], [56.045, 46.212], [56.202, 46.136], [56.467, 46.132]]]}}, {"type": "Feature", "properties": {"kato_code": "610000000", "name_ru": "Туркестанская область", "name_en": "Turkistan Region", "name_kz": "Türkistan oblysy", "kato2": "61"}, "geometry": {"type": "Polygon", "coordinates": [[[69.067, 46.0], [67.167, 45.994], [67.175, 45.934], [67.304, 45.849], [67.365, 45.758], [67.293, 45.687], [67.291, 45.614], [67.245, 45.564], [67.246, 45.406], [67.168, 45.351], [67.168, 45.302], [67.516, 45.148], [67.526, 44.649], [67.509, 44.433], [67.462, 44.368], [67.583, 44.295], [67.631, 44.311], [67.733, 44.272], [67.807, 44.166], [68.06, 44.026], [68.026, 43.962], [67.922, 43.886], [67.979, 43.803], [67.972, 43.737], [67.919, 43.702], [67.824, 43.744], [67.838, 43.639], [67.814, 43.563], [67.734, 43.48], [67.725, 43.407], [67.65, 43.376], [67.678, 43.31], [67.708, 43.367], [67.794, 43.329], [67.814, 43.291], [67.768, 43.275], [67.831, 43.253], [67.787, 43.225], [67.875, 43.213], [67.224, 42.951], [66.148, 42.323], [66.002, 42.361], [65.999, 41.937], [66.532, 41.877], [66.707, 41.142], [67.364, 41.127], [67.733, 41.183], [67.865, 41.135], [67.966, 41.15], [67.984, 41.026], [68.024, 41.018], [68.081, 41.082], [68.128, 41.038], [68.049, 41.019], [68.082, 41.001], [68.063, 40.946], [68.097, 40.936], [67.972, 40.862], [67.977, 40.832], [68.218, 40.688], [68.493, 40.572], [68.663, 40.6], [68.622, 40.63], [68.644, 40.694], [68.584, 40.708], [68.562, 40.806], [68.583, 40.924], [68.465, 40.956], [68.513, 41.01], [68.606, 41.031], [68.673, 40.988], [68.628, 40.969], [68.646, 40.942], [68.737, 40.974], [68.761, 41.006], [68.715, 41.031], [68.726, 41.053], [69.0, 41.239], [69.029, 41.225], [69.041, 41.261], [69.013, 41.29], [69.047, 41.349], [69.022, 41.355], [69.155, 41.387], [69.175, 41.403], [69.15, 41.432], [69.25, 41.466], [69.296, 41.436], [69.355, 41.473], [69.457, 41.465], [69.398, 41.508], [69.442, 41.56], [69.55, 41.569], [69.539, 41.589], [69.618, 41.663], [69.84, 41.72], [69.895, 41.707], [70.005, 41.799], [70.049, 41.781], [70.103, 41.837], [70.176, 41.855], [70.228, 41.935], [70.335, 41.975], [70.332, 42.048], [70.477, 42.109], [70.546, 42.074], [70.559, 42.023], [70.634, 42.015], [70.687, 42.121], [70.756, 42.171], [70.74, 42.184], [70.884, 42.211], [70.943, 42.264], [70.891, 42.263], [70.779, 42.393], [70.771, 42.45], [70.667, 42.452], [70.62, 42.532], [70.516, 42.604], [70.207, 42.747], [70.234, 42.794], [70.194, 42.811], [70.202, 42.856], [70.251, 42.878], [70.198, 43.007], [70.145, 43.028], [70.177, 43.054], [70.15, 43.093], [70.124, 43.074], [70.064, 43.117], [70.073, 43.15], [70.004, 43.17], [70.0, 43.205], [69.917, 43.211], [69.87, 43.263], [69.821, 43.227], [69.731, 43.259], [69.635, 43.25], [69.627, 43.303], [69.529, 43.309], [69.542, 43.412], [69.434, 43.431], [69.557, 43.556], [69.68, 43.764], [69.734, 43.987], [69.707, 44.027], [69.825, 44.161], [69.653, 44.888], [69.593, 44.956], [69.539, 45.155], [69.359, 45.497], [69.267, 45.769], [69.067, 46.0]]]}}, {"type": "Feature", "properties": {"kato_code": "110000000", "name_ru": "Акмолинская область", "name_en": "Akmola Region", "name_kz": "Aqmola oblysy", "kato2": "11"}, "geometry": {"type": "Polygon", "coordinates": [[[73.922, 52.593], [73.529, 52.603], [73.493, 52.666], [73.425, 52.654], [73.392, 52.699], [73.065, 52.749], [72.912, 52.714], [72.931, 52.923], [72.897, 52.932], [72.869, 53.028], [72.449, 52.978], [72.203, 53.013], [72.204, 52.892], [71.915, 52.855], [71.773, 52.914], [71.779, 52.983], [71.669, 52.945], [71.607, 53.042], [71.72, 53.076], [71.697, 53.134], [71.74, 53.212], [71.633, 53.311], [71.573, 53.423], [71.249, 53.304], [71.012, 53.331], [71.063, 53.422], [70.584, 53.43], [70.584, 53.334], [70.448, 53.322], [70.456, 53.234], [70.36, 53.221], [70.319, 53.228], [70.234, 53.367], [69.997, 53.362], [70.009, 53.418], [70.071, 53.433], [70.074, 53.507], [69.84, 53.519], [69.841, 53.632], [69.803, 53.632], [69.803, 53.668], [69.546, 53.679], [69.546, 53.649], [69.379, 53.598], [69.418, 53.528], [69.305, 53.507], [69.306, 53.557], [69.241, 53.569], [69.241, 53.596], [69.135, 53.596], [69.136, 53.677], [69.028, 53.676], [69.028, 53.615], [68.729, 53.642], [68.763, 53.554], [68.653, 53.553], [68.65, 53.504], [68.481, 53.461], [68.579, 53.272], [68.706, 53.267], [68.696, 53.21], [68.752, 53.196], [68.743, 53.126], [68.702, 53.115], [68.784, 53.091], [68.743, 53.034], [68.621, 52.971], [68.666, 52.87], [68.64, 52.863], [68.688, 52.828], [68.677, 52.795], [68.403, 52.716], [68.393, 52.656], [68.361, 52.657], [68.338, 52.606], [68.161, 52.594], [68.14, 52.545], [67.99, 52.544], [67.996, 52.483], [68.051, 52.461], [67.985, 52.355], [67.914, 52.377], [67.86, 52.274], [67.733, 52.347], [67.596, 52.373], [67.538, 52.426], [67.299, 52.428], [67.297, 52.207], [67.1, 52.257], [66.912, 52.243], [66.781, 52.281], [66.542, 52.282], [66.565, 52.305], [66.541, 52.369], [66.491, 52.375], [66.24, 52.332], [66.078, 52.452], [66.007, 52.434], [65.999, 52.205], [65.869, 52.141], [65.868, 52.083], [65.76, 51.872], [65.518, 51.796], [65.352, 51.794], [65.383, 51.685], [65.521, 51.684], [65.577, 51.628], [65.537, 51.514], [65.462, 51.44], [65.547, 51.404], [65.388, 51.327], [65.482, 51.243], [65.426, 51.203], [65.633, 51.082], [65.579, 50.896], [65.605, 50.831], [65.789, 50.854], [65.862, 50.964], [65.95, 50.959], [66.088, 50.872], [66.11, 50.798], [66.241, 50.827], [66.316, 50.685], [66.433, 50.711], [66.725, 50.611], [66.991, 50.658], [67.111, 50.622], [67.066, 50.531], [67.132, 50.384], [67.564, 50.492], [67.838, 50.499], [67.939, 50.553], [67.943, 50.599], [67.891, 50.656], [68.046, 50.661], [68.145, 50.619], [68.256, 50.657], [68.331, 50.723], [68.478, 50.763], [68.512, 50.804], [68.801, 50.8], [68.792, 50.56], [68.749, 50.512], [68.73, 50.302], [68.674, 50.244], [68.965, 50.176], [69.153, 50.178], [69.184, 50.26], [69.304, 50.246], [69.294, 50.303], [69.245, 50.3], [69.266, 50.358], [69.372, 50.388], [69.421, 50.334], [69.447, 50.377], [69.519, 50.295], [69.601, 50.282], [69.601, 50.198], [70.069, 50.257], [70.084, 50.202], [70.173, 50.199], [70.115, 50.112], [70.139, 50.081], [70.12, 50.049], [70.225, 50.047], [70.528, 50.133], [70.548, 50.149], [70.487, 50.239], [70.649, 50.293], [70.73, 50.231], [70.769, 50.441], [71.064, 50.508], [71.058, 50.557], [71.127, 50.609], [71.212, 50.606], [71.229, 50.652], [71.331, 50.652], [71.335, 50.722], [71.527, 50.794], [71.651, 50.789], [71.659, 50.755], [71.736, 50.754], [71.837, 50.683], [71.759, 50.627], [71.816, 50.589], [71.71, 50.429], [71.8, 50.424], [71.809, 50.465], [72.012, 50.467], [72.123, 50.41], [72.117, 50.445], [72.203, 50.455], [72.17, 50.539], [72.267, 50.594], [72.446, 50.565], [72.479, 50.608], [72.399, 50.678], [72.482, 50.74], [72.519, 50.712], [72.525, 50.734], [72.662, 50.75], [72.792, 50.887], [72.98, 50.862], [73.169, 50.922], [73.17, 50.994], [73.398, 51.025], [73.578, 51.121], [73.438, 51.179], [73.32, 51.121], [73.248, 51.232], [73.197, 51.216], [73.156, 51.277], [73.223, 51.305], [73.311, 51.274], [73.394, 51.303], [73.429, 51.256], [73.475, 51.31], [73.671, 51.279], [73.701, 51.339], [73.814, 51.394], [73.811, 51.439], [73.986, 51.501], [74.26, 51.523], [74.251, 51.562], [74.037, 51.599], [74.007, 51.643], [73.778, 51.627], [73.81, 51.804], [73.969, 51.893], [74.028, 51.892], [74.03, 51.932], [74.0, 51.932], [74.0, 52.544], [73.921, 52.544], [73.922, 52.593]], [[71.222, 51.099], [71.253, 51.176], [71.282, 51.179], [71.245, 51.225], [71.302, 51.233], [71.385, 51.302], [71.4, 51.267], [71.499, 51.29], [71.469, 51.261], [71.552, 51.243], [71.594, 51.278], [71.619, 51.248], [71.583, 51.203], [71.742, 51.101], [71.615, 51.099], [71.454, 51.001], [71.287, 51.022], [71.222, 51.099]], [[71.641, 51.332], [71.706, 51.348], [71.672, 51.309], [71.641, 51.332]], [[71.74, 51.166], [71.785, 51.157], [71.74, 51.166]]]}}, {"type": "Feature", "properties": {"kato_code": "190000000", "name_ru": "Алматинская область", "name_en": "Almaty Region", "name_kz": "Almaty oblysy", "kato2": "19"}, "geometry": {"type": "Polygon", "coordinates": [[[75.823, 42.94], [75.937, 42.956], [76.028, 42.911], [76.194, 42.931], [76.302, 42.911], [76.304, 42.874], [76.344, 42.861], [76.479, 42.885], [76.523, 42.922], [76.709, 42.904], [76.837, 42.983], [76.973, 42.987], [77.035, 42.947], [77.063, 42.977], [77.155, 42.972], [77.155, 42.946], [77.235, 42.912], [77.351, 42.898], [77.552, 42.941], [77.581, 42.916], [77.934, 42.882], [77.968, 42.851], [78.198, 42.882], [78.349, 42.855], [78.371, 42.887], [78.496, 42.9], [78.664, 42.815], [79.034, 42.76], [79.199, 42.804], [79.17, 42.732], [79.205, 42.668], [79.357, 42.595], [79.505, 42.46], [79.695, 42.48], [79.964, 42.437], [79.982, 42.378], [80.138, 42.292], [80.118, 42.276], [80.174, 42.211], [80.267, 42.225], [80.289, 42.262], [80.26, 42.303], [80.284, 42.319], [80.238, 42.34], [80.204, 42.429], [80.208, 42.469], [80.275, 42.518], [80.221, 42.533], [80.162, 42.63], [80.229, 42.696], [80.26, 42.828], [80.406, 42.83], [80.601, 42.892], [80.381, 43.022], [80.591, 43.139], [80.781, 43.138], [80.807, 43.177], [80.765, 43.267], [80.778, 43.311], [80.683, 43.329], [80.751, 43.469], [80.522, 43.824], [80.509, 43.907], [80.448, 43.989], [80.445, 44.074], [80.394, 44.112], [80.405, 44.293], [80.347, 44.483], [80.41, 44.61], [80.337, 44.69], [80.193, 44.75], [80.164, 44.842], [79.999, 44.79], [79.945, 44.85], [79.964, 44.882], [79.882, 44.911], [80.056, 45.014], [80.097, 45.007], [80.093, 45.048], [80.213, 45.023], [80.319, 45.07], [80.382, 45.04], [80.489, 45.127], [80.6, 45.104], [80.743, 45.16], [80.897, 45.125], [80.957, 45.168], [81.07, 45.172], [81.107, 45.222], [81.162, 45.206], [81.227, 45.248], [81.521, 45.282], [81.592, 45.34], [81.695, 45.369], [81.807, 45.355], [81.922, 45.229], [82.044, 45.254], [82.091, 45.245], [82.11, 45.202], [82.276, 45.241], [82.475, 45.177], [82.582, 45.22], [82.588, 45.345], [82.543, 45.421], [82.14, 45.622], [82.124, 45.761], [81.978, 45.881], [81.885, 46.104], [81.537, 46.366], [81.513, 46.417], [81.603, 46.519], [81.56, 46.487], [81.473, 46.495], [81.4, 46.434], [81.378, 46.445], [81.44, 46.526], [81.34, 46.453], [81.309, 46.513], [81.255, 46.49], [81.142, 46.56], [80.863, 46.563], [80.237, 46.784], [80.198, 46.809], [80.191, 46.866], [80.008, 46.915], [79.577, 46.78], [79.263, 47.082], [78.817, 47.047], [78.768, 47.133], [78.642, 47.141], [78.303, 47.331], [78.142, 47.191], [78.014, 47.283], [77.867, 47.17], [77.609, 47.209], [77.466, 47.161], [77.556, 46.621], [77.338, 46.613], [77.263, 46.543], [77.104, 46.543], [77.073, 46.623], [77.004, 46.647], [76.942, 46.617], [76.833, 46.678], [76.932, 46.538], [76.605, 46.666], [76.525, 46.643], [76.538, 46.593], [76.433, 46.643], [76.377, 46.622], [76.367, 46.691], [76.225, 46.639], [76.049, 46.738], [75.327, 46.682], [75.019, 46.557], [74.744, 46.526], [74.166, 46.138], [74.082, 46.04], [74.015, 45.89], [73.901, 45.746], [74.031, 45.288], [73.753, 45.289], [73.722, 45.221], [73.755, 45.104], [74.088, 45.127], [74.133, 44.913], [74.403, 44.801], [74.523, 44.699], [74.494, 44.526], [74.52, 44.486], [74.751, 44.358], [74.998, 44.327], [75.307, 44.148], [75.316, 44.018], [75.273, 43.949], [75.268, 43.825], [74.997, 43.651], [74.997, 43.61], [75.184, 43.543], [75.181, 43.591], [75.239, 43.59], [75.242, 43.537], [75.389, 43.535], [75.419, 43.471], [75.294, 43.376], [75.281, 43.263], [75.331, 43.253], [75.294, 43.213], [75.349, 43.146], [75.656, 43.044], [75.547, 42.982], [75.774, 42.973], [75.773, 42.941], [75.823, 42.94]], [[76.738, 43.315], [76.813, 43.355], [76.88, 43.328], [76.986, 43.404], [77.011, 43.36], [77.102, 43.384], [77.032, 43.347], [77.005, 43.263], [77.099, 43.176], [77.12, 43.204], [77.146, 43.19], [77.117, 43.152], [77.06, 43.16], [77.121, 43.118], [77.08, 43.115], [77.077, 43.034], [76.944, 43.034], [76.962, 43.078], [76.905, 43.08], [76.895, 43.126], [76.776, 43.159], [76.798, 43.282], [76.738, 43.315]], [[77.127, 43.364], [77.167, 43.345], [77.127, 43.364]]]}}, {"type": "Feature", "properties": {"kato_code": "590000000", "name_ru": "Северо-Казахстанская область", "name_en": "North Kazakhstan Region", "name_kz": "Soltüstik Qazaqstan oblysy", "kato2": "59"}, "geometry": {"type": "Polygon", "coordinates": [[[73.439, 53.435], [73.362, 53.468], [73.398, 53.522], [73.238, 53.568], [73.278, 53.64], [73.253, 53.674], [73.323, 53.676], [73.343, 53.788], [73.449, 53.807], [73.429, 53.848], [73.453, 53.876], [73.691, 53.856], [73.768, 54.054], [73.63, 54.071], [73.658, 54.046], [73.61, 54.008], [73.519, 54.003], [73.522, 53.94], [73.404, 53.978], [73.403, 53.945], [73.3, 53.943], [73.067, 53.986], [73.06, 54.04], [72.979, 54.05], [72.995, 54.098], [72.609, 54.137], [72.56, 54.116], [72.531, 54.043], [72.674, 54.045], [72.715, 54.007], [72.705, 53.956], [72.556, 53.98], [72.493, 53.904], [72.43, 53.914], [72.375, 53.946], [72.433, 54.045], [72.398, 54.05], [72.379, 54.105], [72.513, 54.105], [72.507, 54.14], [72.299, 54.187], [72.338, 54.246], [72.291, 54.25], [72.28, 54.317], [72.193, 54.358], [72.013, 54.369], [72.042, 54.325], [72.133, 54.302], [72.097, 54.215], [72.225, 54.18], [72.183, 54.127], [71.951, 54.241], [71.755, 54.252], [71.727, 54.185], [71.767, 54.147], [71.723, 54.104], [71.49, 54.097], [71.491, 54.158], [71.296, 54.185], [71.179, 54.095], [71.123, 54.129], [71.111, 54.183], [71.056, 54.188], [71.074, 54.272], [71.0, 54.273], [70.998, 54.334], [71.2, 54.308], [71.234, 54.402], [71.2, 54.403], [71.205, 54.459], [71.174, 54.457], [71.169, 54.565], [71.211, 54.607], [71.288, 54.602], [71.294, 54.666], [71.241, 54.666], [71.21, 54.702], [71.098, 54.699], [71.035, 54.774], [71.022, 54.85], [70.96, 54.886], [71.009, 54.965], [70.98, 54.982], [71.007, 55.018], [70.992, 55.067], [71.025, 55.083], [70.925, 55.126], [70.93, 55.164], [70.882, 55.18], [70.816, 55.288], [70.7, 55.287], [70.624, 55.25], [70.461, 55.286], [70.401, 55.215], [70.201, 55.147], [70.063, 55.207], [69.952, 55.21], [69.867, 55.296], [69.684, 55.351], [69.676, 55.48], [69.656, 55.435], [69.582, 55.417], [69.66, 55.35], [69.539, 55.336], [69.363, 55.389], [69.32, 55.346], [69.206, 55.33], [69.173, 55.382], [68.935, 55.44], [68.919, 55.368], [68.982, 55.364], [69.009, 55.285], [68.962, 55.326], [68.752, 55.377], [68.697, 55.289], [68.635, 55.265], [68.659, 55.236], [68.62, 55.198], [68.595, 55.219], [68.359, 55.206], [68.354, 55.181], [68.177, 55.199], [68.219, 55.155], [68.192, 55.15], [68.316, 55.077], [68.238, 55.054], [68.238, 55.015], [68.197, 54.99], [68.235, 54.969], [67.82, 54.971], [67.773, 54.886], [67.692, 54.863], [67.564, 54.844], [67.333, 54.873], [67.29, 54.862], [67.282, 54.826], [67.052, 54.778], [66.864, 54.776], [66.075, 54.641], [66.11, 54.489], [66.074, 54.47], [66.107, 54.444], [66.085, 54.419], [66.177, 54.294], [66.032, 54.252], [66.191, 54.183], [66.267, 54.183], [66.318, 54.102], [66.15, 54.075], [65.963, 53.999], [66.002, 53.928], [66.025, 53.933], [66.047, 53.803], [66.179, 53.806], [66.174, 53.671], [66.105, 53.606], [66.111, 53.503], [66.249, 53.503], [66.257, 53.194], [66.4, 53.155], [66.402, 53.09], [66.2, 53.111], [66.05, 53.061], [66.071, 52.982], [66.321, 52.97], [66.308, 52.886], [66.118, 52.894], [66.129, 52.764], [66.019, 52.761], [66.007, 52.434], [66.078, 52.452], [66.24, 52.332], [66.491, 52.375], [66.541, 52.369], [66.565, 52.305], [66.542, 52.282], [66.781, 52.281], [66.912, 52.243], [67.1, 52.257], [67.297, 52.207], [67.299, 52.428], [67.538, 52.426], [67.596, 52.373], [67.733, 52.347], [67.86, 52.274], [67.914, 52.377], [67.985, 52.355], [68.051, 52.461], [67.996, 52.483], [67.99, 52.544], [68.14, 52.545], [68.161, 52.594], [68.338, 52.606], [68.361, 52.657], [68.393, 52.656], [68.403, 52.716], [68.677, 52.795], [68.688, 52.828], [68.64, 52.863], [68.666, 52.87], [68.621, 52.971], [68.743, 53.034], [68.784, 53.091], [68.702, 53.115], [68.743, 53.126], [68.752, 53.196], [68.696, 53.21], [68.706, 53.267], [68.579, 53.272], [68.481, 53.461], [68.65, 53.504], [68.653, 53.553], [68.763, 53.554], [68.729, 53.642], [69.028, 53.615], [69.028, 53.676], [69.136, 53.677], [69.135, 53.596], [69.241, 53.596], [69.241, 53.569], [69.306, 53.557], [69.305, 53.507], [69.418, 53.528], [69.379, 53.598], [69.546, 53.649], [69.546, 53.679], [69.803, 53.668], [69.803, 53.632], [69.841, 53.632], [69.84, 53.519], [70.074, 53.507], [70.071, 53.433], [70.009, 53.418], [69.997, 53.362], [70.234, 53.367], [70.319, 53.228], [70.36, 53.221], [70.456, 53.234], [70.448, 53.322], [70.584, 53.334], [70.584, 53.43], [71.063, 53.422], [71.012, 53.331], [71.249, 53.304], [71.573, 53.423], [71.633, 53.311], [71.74, 53.212], [71.697, 53.134], [71.72, 53.076], [71.607, 53.042], [71.669, 52.945], [71.779, 52.983], [71.773, 52.914], [71.915, 52.855], [72.204, 52.892], [72.203, 53.013], [72.449, 52.978], [72.869, 53.028], [72.897, 52.932], [72.931, 52.923], [72.912, 52.714], [73.065, 52.749], [73.392, 52.699], [73.425, 52.654], [73.493, 52.666], [73.529, 52.603], [73.922, 52.593], [73.922, 52.626], [73.747, 52.627], [73.669, 52.692], [73.734, 52.712], [73.854, 52.652], [73.922, 52.653], [73.918, 52.761], [73.986, 52.762], [73.984, 52.83], [74.035, 52.833], [73.99, 52.931], [73.856, 52.901], [73.767, 52.81], [73.629, 52.814], [73.592, 52.882], [73.668, 52.933], [73.612, 52.984], [73.51, 52.953], [73.776, 53.166], [73.653, 53.208], [73.434, 53.124], [73.406, 53.167], [73.43, 53.292], [73.542, 53.261], [73.59, 53.282], [73.439, 53.435]]]}}, {"type": "Feature", "properties": {"kato_code": "750000000", "name_ru": "Алматы", "name_en": "Almaty", "name_kz": "Almaty", "kato2": "75"}, "geometry": {"type": "MultiPolygon", "coordinates": [[[[76.738, 43.315], [76.798, 43.282], [76.776, 43.159], [76.895, 43.126], [76.905, 43.08], [76.962, 43.078], [76.944, 43.034], [77.077, 43.034], [77.08, 43.115], [77.121, 43.118], [77.06, 43.16], [77.117, 43.152], [77.146, 43.19], [77.12, 43.204], [77.099, 43.176], [77.005, 43.263], [77.032, 43.347], [77.102, 43.384], [77.011, 43.36], [76.986, 43.404], [76.88, 43.328], [76.813, 43.355], [76.738, 43.315]]], [[[77.127, 43.364], [77.167, 43.345], [77.127, 43.364]]]]}}, {"type": "Feature", "properties": {"kato_code": "270000000", "name_ru": "Западно-Казахстанская область", "name_en": "West Kazakhstan Region", "name_kz": "Batys Qazaqstan oblysy", "kato2": "27"}, "geometry": {"type": "Polygon", "coordinates": [[[54.544, 50.527], [54.414, 50.621], [54.474, 50.778], [54.534, 50.849], [54.29, 50.901], [54.288, 50.949], [54.195, 50.967], [54.205, 50.987], [54.158, 51.01], [54.194, 51.032], [54.13, 51.063], [54.145, 51.099], [54.037, 51.141], [54.055, 51.153], [53.668, 51.225], [53.67, 51.26], [53.596, 51.306], [53.629, 51.393], [53.487, 51.454], [53.437, 51.438], [53.426, 51.482], [53.276, 51.482], [53.255, 51.512], [53.182, 51.512], [53.189, 51.535], [53.142, 51.521], [53.156, 51.487], [53.071, 51.505], [52.944, 51.476], [52.95, 51.455], [52.925, 51.498], [52.872, 51.475], [52.899, 51.503], [52.833, 51.486], [52.771, 51.522], [52.747, 51.486], [52.675, 51.478], [52.688, 51.457], [52.655, 51.491], [52.62, 51.455], [52.587, 51.478], [52.546, 51.46], [52.554, 51.487], [52.505, 51.506], [52.509, 51.542], [52.384, 51.683], [52.359, 51.776], [52.319, 51.766], [52.335, 51.743], [52.18, 51.733], [52.174, 51.687], [52.09, 51.658], [51.857, 51.674], [51.771, 51.582], [51.814, 51.497], [51.739, 51.465], [51.656, 51.449], [51.63, 51.475], [51.657, 51.505], [51.604, 51.551], [51.566, 51.506], [51.38, 51.476], [51.286, 51.488], [51.286, 51.532], [51.248, 51.525], [51.24, 51.563], [51.38, 51.563], [51.38, 51.641], [51.304, 51.641], [51.253, 51.687], [50.894, 51.681], [50.871, 51.754], [50.768, 51.773], [50.767, 51.716], [50.833, 51.649], [50.812, 51.585], [50.679, 51.575], [50.733, 51.627], [50.585, 51.646], [50.587, 51.591], [50.538, 51.589], [50.556, 51.473], [50.498, 51.467], [50.497, 51.428], [50.372, 51.428], [50.404, 51.404], [50.338, 51.382], [50.374, 51.333], [50.251, 51.281], [50.006, 51.242], [49.776, 51.107], [49.491, 51.099], [49.457, 51.126], [49.394, 51.09], [49.397, 51.049], [49.339, 50.987], [49.408, 50.961], [49.445, 50.882], [49.423, 50.849], [49.126, 50.785], [49.009, 50.683], [48.814, 50.596], [48.696, 50.61], [48.606, 50.662], [48.571, 50.632], [48.664, 50.578], [48.732, 50.257], [48.809, 50.17], [48.763, 50.098], [48.85, 50.09], [48.903, 50.019], [48.746, 49.921], [48.45, 49.835], [48.441, 49.801], [48.315, 49.872], [48.226, 49.868], [48.233, 49.9], [48.132, 49.998], [48.095, 50.1], [48.009, 50.142], [47.828, 50.33], [47.763, 50.34], [47.612, 50.464], [47.542, 50.461], [47.407, 50.336], [47.307, 50.309], [47.291, 50.283], [47.335, 50.238], [47.257, 50.192], [47.353, 50.094], [47.182, 49.935], [46.903, 49.864], [46.837, 49.607], [46.782, 49.34], [46.996, 49.232], [47.051, 49.166], [47.029, 49.089], [46.893, 48.982], [46.779, 48.951], [46.492, 48.434], [47.124, 48.27], [47.111, 48.234], [47.168, 48.218], [48.679, 48.103], [49.447, 47.92], [49.439, 48.024], [49.751, 48.013], [49.806, 48.043], [49.974, 48.04], [50.177, 48.18], [50.727, 48.426], [51.017, 48.511], [51.073, 48.627], [51.4, 48.672], [51.824, 48.624], [51.85, 48.587], [51.816, 48.572], [51.813, 48.514], [51.939, 48.525], [52.07, 48.466], [52.208, 48.486], [52.428, 48.403], [52.536, 48.405], [52.537, 48.592], [52.613, 48.766], [52.716, 48.762], [52.706, 48.996], [52.782, 48.981], [52.825, 49.048], [53.263, 49.018], [53.415, 49.052], [53.386, 49.1], [53.664, 49.278], [53.73, 49.425], [53.695, 49.477], [53.757, 49.457], [53.798, 49.525], [53.875, 49.57], [53.973, 49.57], [53.991, 49.619], [54.201, 49.61], [54.299, 49.648], [54.275, 49.676], [54.366, 49.768], [54.477, 49.768], [54.419, 49.815], [54.556, 50.013], [54.543, 50.063], [54.425, 50.118], [54.44, 50.273], [54.365, 50.34], [54.465, 50.403], [54.565, 50.517], [54.544, 50.527]]]}}, {"type": "Feature", "properties": {"kato_code": "710000000", "name_ru": "Астана", "name_en": "Astana", "name_kz": "Astana", "kato2": "71"}, "geometry": {"type": "MultiPolygon", "coordinates": [[[[71.222, 51.099], [71.287, 51.022], [71.454, 51.001], [71.615, 51.099], [71.742, 51.101], [71.583, 51.203], [71.619, 51.248], [71.594, 51.278], [71.552, 51.243], [71.469, 51.261], [71.499, 51.29], [71.4, 51.267], [71.385, 51.302], [71.302, 51.233], [71.245, 51.225], [71.282, 51.179], [71.253, 51.176], [71.222, 51.099]]], [[[71.641, 51.332], [71.672, 51.309], [71.706, 51.348], [71.641, 51.332]]], [[[71.74, 51.166], [71.785, 51.157], [71.74, 51.166]]]]}}]}